0 COSMOS 252 DEB
1 03565U 68097R   13282.16455060  .00004646  00000-0  99501-3 0  4253
2 03565 062.3007 347.6485 0575859 154.0916 245.8548 13.89469294193421
0 COSMOS 252 DEB
1 03565U 68097R   13283.17169797  .00004755  00000-0  10179-2 0  4269
2 03565 062.3008 344.7337 0575727 154.3348 243.7126 13.89477074193561
0 COSMOS 252 DEB
1 03565U 68097R   13283.74044391  .00006706  00000-0  13856-2 0  4289
2 03565 062.3006 343.0888 0575888 154.4789 208.6397 13.89479247193643
0 COSMOS 252 DEB
1 03565U 68097R   13284.17942571  .00004245  00000-0  91276-3 0  4272
2 03565 062.3009 341.8174 0575596 154.5808 244.4969 13.89484152193700
0 COSMOS 252 DEB
1 03565U 68097R   13285.48825140  .00002737  00000-0  60103-3 0  4289
2 03565 062.3011 338.0296 0575391 154.9043 311.4510 13.89494793193882
0 COSMOS 252 DEB
1 03565U 68097R   13286.49702606  .00003039  00000-0  66407-3 0  4292
2 03565 062.3010 335.1103 0575252 155.1495 317.5399 13.89499343194021
0 COSMOS 252 DEB
1 03565U 68097R   13287.50443428  .00003821  00000-0  82651-3 0  4309
2 03565 062.3008 332.1951 0575118 155.3940 316.8109 13.89503791194163
0 COSMOS 252 DEB
1 03565U 68097R   13288.51923442  .00004850  00000-0  10410-2 0  4317
2 03565 062.3005 329.2583 0574872 155.6432 353.0787 13.89516733194304
0 COSMOS 252 DEB
1 03565U 68097R   13289.52832491  .00003489  00000-0  75871-3 0  4323
2 03565 062.3001 326.3378 0574756 155.8860 000.8296 13.89524024194447
0 COSMOS 252 DEB
1 03565U 68097R   13290.50507253  .00003625  00000-0  74967-3 0  4336
2 03565 062.3009 323.5119 0575426 156.1464 206.7902 13.89529956194581
0 COSMOS 252 DEB
1 03565U 68097R   13290.53488359  .00003987  00000-0  86249-3 0  4331
2 03565 062.2997 323.4246 0574652 156.1284 355.9423 13.89528117194589
0 COSMOS 252 DEB
1 03565U 68097R   13291.67710799  .00003692  00000-0  80174-3 0  4348
2 03565 062.2995 320.1185 0574497 156.4038 309.7162 13.89535197194741
0 COSMOS 252 DEB
1 03565U 68097R   13293.18126344  .00002203  00000-0  49255-3 0  4356
2 03565 062.2994 315.7645 0574254 156.7700 274.0231 13.89545178194955
0 COSMOS 252 DEB
1 03565U 68097R   13294.49268353  .00003368  00000-0  73575-3 0  4364
2 03565 062.2996 311.9678 0574029 157.0860 354.2472 13.89549154195139
0 COSMOS 252 DEB
1 03565U 68097R   13295.50155618  .00003264  00000-0  71452-3 0  4374
2 03565 062.2997 309.0479 0573855 157.3293 001.0227 13.89555651195275
